GLOBALSTAR M063         
1 26081U 00008A   25235.23678043 -.00000074  00000+0  12868-3 0  9994
2 26081  51.9960 294.9907 0004784  89.0122 340.5888 11.86175289165538
GLOBALSTAR M062         
1 26082U 00008B   25235.24531260 -.00000052  00000+0  33073-3 0  9992
2 26082  51.9828 258.5863 0007098 253.7544 185.6798 12.43470838504962
GLOBALSTAR M060         
1 26083U 00008C   25235.28114083 -.00000009  00000+0  81568-3 0  9991
2 26083  51.9992 227.9790 0003291 264.1410 109.2786 12.17665113160547
GLOBALSTAR M064         
1 26084U 00008D   25235.17078014 -.00000086  00000+0 -42018-4 0  9997
2 26084  52.0051  33.1977 0001630 154.5006 205.5907 11.88535716175068
GLOBALSTAR M065         
1 31571U 07020A   25234.60341301 -.00000114  00000+0 -56540-4 0  9991
2 31571  51.9916  24.1158 0010852  95.5722   2.1026 12.62010404841797
GLOBALSTAR M069         
1 31573U 07020C   25232.81130028 -.00000089  00000+0  28418-4 0  9999
2 31573  52.0057  22.2996 0000647 229.7471 278.0429 12.23460897842030
GLOBALSTAR M072         
1 31574U 07020D   25235.30518189 -.00000095  00000+0 -15126-3 0  9994
2 31574  51.9915 173.2852 0001367  77.4624  89.9476 11.91651108839463
GLOBALSTAR M071         
1 31576U 07020F   25235.18554589 -.00000150  00000+0 -58423-3 0  9995
2 31576  52.0075  43.0879 0000377 156.5843  14.5316 12.18257298503107
